{
    "links": {
        "self": "http://www.neowsapp.com/rest/v1/neo/3694525?api_key=iIulBulltgU6a56xZRHN4H3l9WmuAYTsLGpBGhQ2"
    },
    "id": "3694525",
    "neo_reference_id": "3694525",
    "name": "(2014 UB58)",
    "designation": "2014 UB58",
    "nasa_jpl_url": "http://ssd.jpl.nasa.gov/sbdb.cgi?sstr=3694525",
    "absolute_magnitude_h": 24.2,
    "estimated_diameter": {
        "kilometers": {
            "estimated_diameter_min": 0.0384197891,
            "estimated_diameter_max": 0.0859092601
        },
        "meters": {
            "estimated_diameter_min": 38.4197891064,
            "estimated_diameter_max": 85.9092601232
        },
        "miles": {
            "estimated_diameter_min": 0.0238729428,
            "estimated_diameter_max": 0.0533815229
        },
        "feet": {
            "estimated_diameter_min": 126.0491808919,
            "estimated_diameter_max": 281.8545369825
        }
    },
    "is_potentially_hazardous_asteroid": false,
    "close_approach_data": [
        {
            "close_approach_date": "2014-06-04",
            "close_approach_date_full": "2014-Jun-04 03:56",
            "epoch_date_close_approach": 1401854160000,
            "relative_velocity": {
                "kilometers_per_second": "13.3499279921",
                "kilometers_per_hour": "48059.7407715942",
                "miles_per_hour": "29862.4539255497"
            },
            "miss_distance": {
                "astronomical": "0.4914645666",
                "lunar": "191.1797164074",
                "kilometers": "73522052.343833142",
                "miles": "45684484.9087436796"
            },
            "orbiting_body": "Earth"
        },
        {
            "close_approach_date": "2014-10-21",
            "close_approach_date_full": "2014-Oct-21 09:23",
            "epoch_date_close_approach": 1413883380000,
            "relative_velocity": {
                "kilometers_per_second": "15.2321049873",
                "kilometers_per_hour": "54835.577954455",
                "miles_per_hour": "34072.6956462001"
            },
            "miss_distance": {
                "astronomical": "0.0991599031",
                "lunar": "38.5732023059",
                "kilometers": "14834110.293166397",
                "miles": "9217488.7155423986"
            },
            "orbiting_body": "Earth"
        }
    ],
    "orbital_data": {
        "orbit_id": "3",
        "orbit_determination_date": "2017-04-06 08:37:52",
        "first_observation_date": "2014-10-25",
        "last_observation_date": "2014-10-27",
        "data_arc_in_days": 2,
        "observations_used": 22,
        "orbit_uncertainty": "9",
        "minimum_orbit_intersection": ".0953746",
        "jupiter_tisserand_invariant": "4.562",
        "epoch_osculation": "2456956.5",
        "eccentricity": ".2733896038456271",
        "semi_major_axis": "1.417462770707062",
        "inclination": "27.46919012789486",
        "ascending_node_longitude": "211.8820856351266",
        "orbital_period": "616.4046673551859",
        "perihelion_distance": "1.029943185357533",
        "perihelion_argument": "135.8898164700524",
        "aphelion_distance": "1.80498235605659",
        "perihelion_time": "2456911.816957681746",
        "mean_anomaly": "26.09632289708539",
        "mean_motion": ".5840319177735235",
        "equinox": "J2000",
        "orbit_class": {
            "orbit_class_type": "AMO",
            "orbit_class_description": "Near-Earth asteroid orbits similar to that of 1221 Amor",
            "orbit_class_range": "1.017 AU < q (perihelion) < 1.3 AU"
        }
    },
    "is_sentry_object": false
}